NORAD_CAT_ID,OBJECT_NAME,OBJECT_TYPE,EPOCH,MEAN_MOTION,ECCENTRICITY,INCLINATION,RA_OF_ASC_NODE,ARG_OF_PERICENTER,MEAN_ANOMALY,BSTAR,MEAN_MOTION_DOT,MEAN_MOTION_DDOT,TLE_LINE0,TLE_LINE1,TLE_LINE2,SEMIMAJOR_AXIS,PERIOD,APOGEE,PERIGEE,DECAYED
52337.0,STARLINK-3797,PAYLOAD,2022-11-16 04:10:11,15.08842443,0.0002894,53.2162,238.8412,35.4482,324.6702,0.00013074,1.793e-05,0.0,0 STARLINK-3797,1 52337U 22045G   22320.17373856  .00001793  00000-0  13074-3 0  9990,2 52337  53.2162 238.8412 0002894  35.4482 324.6702 15.08842443 33041,6917.873000000001,95.437,541.74,537.736,0.0
52337.0,STARLINK-3797,PAYLOAD,2022-11-16 13:42:29,15.08850691,0.0002985,53.2154,237.0589,28.2684,331.8469,0.00015715,2.214e-05,0.0,0 STARLINK-3797,1 52337U 22045G   22320.57117281  .00002214  00000-0  15715-3 0  9995,2 52337  53.2154 237.0589 0002985  28.2684 331.8469 15.08850691 33104,6917.848000000001,95.437,541.778,537.648,0.0
52337.0,STARLINK-3797,PAYLOAD,2022-11-17 13:33:16,15.08838102,0.0002608,53.2167,232.5956,27.2554,332.8575,-1.0753e-05,-4.6e-06,0.0,0 STARLINK-3797,1 52337U 22045G   22321.56477713 -.00000460  00000-0 -10753-4 0  9995,2 52337  53.2167 232.5956 0002608  27.2554 332.8575 15.08838102 33251,6917.886,95.438,541.555,537.947,0.0
52337.0,STARLINK-3797,PAYLOAD,2022-11-17 19:54:49,15.08841748,0.0003001,53.2155,231.4087,32.2363,327.8813,8.3305e-05,1.038e-05,0.0,0 STARLINK-3797,1 52337U 22045G   22321.82973522  .00001038  00000-0  83305-4 0  9996,2 52337  53.2155 231.4087 0003001  32.2363 327.8813 15.08841748 33296,6917.875,95.437,541.816,537.664,0.0
52337.0,STARLINK-3797,PAYLOAD,2022-11-18 03:51:44,15.08843966,0.0002762,53.2156,229.9212,32.1827,327.9334,3.7505e-05,3.08e-06,0.0,0 STARLINK-3797,1 52337U 22045G   22322.16093284  .00000308  00000-0  37505-4 0  9992,2 52337  53.2156 229.9212 0002762  32.1827 327.9334 15.08843966 33345,6917.868,95.437,541.644,537.823,0.0
52337.0,STARLINK-3797,PAYLOAD,2022-11-19 10:04:04,15.08845922,0.0003156,53.2159,224.2714,31.6136,328.5045,0.00010297,1.351e-05,0.0,0 STARLINK-3797,1 52337U 22045G   22323.41949244  .00001351  00000-0  10297-3 0  9994,2 52337  53.2159 224.2714 0003156  31.6136 328.5045 15.08845922 33539,6917.861999999999,95.437,541.911,537.544,0.0
52337.0,STARLINK-3797,PAYLOAD,2022-11-20 09:54:50,15.08848384,0.0003107,53.216,219.8126,31.8094,328.3086,0.00011481,1.5399999999999998e-05,0.0,0 STARLINK-3797,1 52337U 22045G   22324.41308843  .00001540  00000-0  11481-3 0  9995,2 52337  53.2160 219.8126 0003107  31.8094 328.3086 15.08848384 33683,6917.855,95.437,541.869,537.57,0.0
52337.0,STARLINK-3797,PAYLOAD,2022-11-20 21:02:32,15.08843621,0.0003105,53.2167,217.7293,29.3524,330.7642,-8.157800000000002e-07,-3.02e-06,0.0,0 STARLINK-3797,1 52337U 22045G   22324.87676951 -.00000302  00000-0 -81578-6 0  9997,2 52337  53.2167 217.7293 0003105  29.3524 330.7642 15.08843621 33752,6917.869000000002,95.437,541.882,537.586,0.0
52337.0,STARLINK-3797,PAYLOAD,2022-11-21 00:13:19,15.08839711,0.0003193,53.2172,217.1348,29.0454,331.0715,-6.0562e-05,-1.253e-05,0.0,0 STARLINK-3797,1 52337U 22045G   22325.00925146 -.00001253  00000-0 -60562-4 0  9990,2 52337  53.2172 217.1348 0003193  29.0454 331.0715 15.08839711 33771,6917.880999999999,95.438,541.955,537.5369999999998,0.0
52337.0,STARLINK-3797,PAYLOAD,2022-11-21 11:21:01,15.08839947,0.0003071,53.216,215.0532,30.8779,329.2393,2.5108e-05,1.11e-06,0.0,0 STARLINK-3797,1 52337U 22045G   22325.47293628  .00000111  00000-0  25108-4 0  9991,2 52337  53.2160 215.0532 0003071  30.8779 329.2393 15.08839947 33845,6917.880999999999,95.438,541.87,537.621,0.0
52337.0,STARLINK-3797,PAYLOAD,2022-11-21 16:07:11,15.08830015,0.000305,53.218,214.1605,27.9659,332.1497,-2.8413e-05,-7.41e-06,0.0,0 STARLINK-3797,1 52337U 22045G   22325.67166297 -.00000741  00000-0 -28413-4 0  9997,2 52337  53.2180 214.1605 0003050  27.9659 332.1497 15.08830015 33877,6917.911,95.438,541.886,537.6659999999998,0.0
52337.0,STARLINK-3797,PAYLOAD,2022-11-21 19:17:58,15.08830675,0.0003028,53.2174,213.5668,28.2548,331.8608,-3.6079e-05,-8.63e-06,0.0,0 STARLINK-3797,1 52337U 22045G   22325.80414360 -.00000863  00000-0 -36079-4 0  9991,2 52337  53.2174 213.5668 0003028  28.2548 331.8608 15.08830675 33892,6917.909000000002,95.438,541.869,537.679,0.0
52337.0,STARLINK-3797,PAYLOAD,2022-11-22 12:47:12,15.08835268,0.0003063,53.2164,210.2964,29.5013,330.6152,7.2101e-05,8.59e-06,0.0,0 STARLINK-3797,1 52337U 22045G   22326.53278227  .00000859  00000-0  72101-4 0  9991,2 52337  53.2164 210.2964 0003063  29.5013 330.6152 15.08835268 34002,6917.895,95.438,541.879,537.641,0.0
52337.0,STARLINK-3797,PAYLOAD,2022-11-22 20:44:07,15.08839683,0.0003047,53.2157,208.8099,36.0985,324.0213,3.203e-05,2.21e-06,0.0,0 STARLINK-3797,1 52337U 22045G   22326.86397936  .00000221  00000-0  32030-4 0  9996,2 52337  53.2157 208.8099 0003047  36.0985 324.0213 15.08839683 34054,6917.880999999999,95.438,541.854,537.638,0.0
52337.0,STARLINK-3797,PAYLOAD,2022-11-23 09:27:13,15.08843604,0.0003123,53.2151,206.4312,32.5788,327.5396,0.00031452,4.721e-05,0.0,0 STARLINK-3797,1 52337U 22045G   22327.39390069  .00004721  00000-0  31452-3 0  9990,2 52337  53.2151 206.4312 0003123  32.5788 327.5396 15.08843604 34134,6917.869000000002,95.437,541.895,537.5740000000002,0.0
52337.0,STARLINK-3797,PAYLOAD,2022-11-23 18:59:32,15.08831316,0.0003092,53.215,204.6468,36.4214,323.6988,0.00023598,3.468e-05,0.0,0 STARLINK-3797,1 52337U 22045G   22327.79134755  .00003468  00000-0  23598-3 0  9991,2 52337  53.2150 204.6468 0003092  36.4214 323.6988 15.08831316 34194,6917.906999999997,95.438,541.911,537.633,0.0
52337.0,STARLINK-3797,PAYLOAD,2022-11-24 10:53:24,15.08821485,0.0003062,53.2154,201.6719,33.6115,326.5071,-9.1501e-05,-1.744e-05,0.0,0 STARLINK-3797,1 52337U 22045G   22328.45375703 -.00001744  00000-0 -91501-4 0  9992,2 52337  53.2154 201.6719 0003062  33.6115 326.5071 15.08821485 34292,6917.937,95.439,541.92,537.684,0.0
52337.0,STARLINK-3797,PAYLOAD,2022-11-24 12:28:48,15.08822921,0.0003057,53.2163,201.3745,33.292,326.8263,-1.1204e-05,-4.67e-06,0.0,0 STARLINK-3797,1 52337U 22045G   22328.52000136 -.00000467  00000-0 -11204-4 0  9998,2 52337  53.2163 201.3745 0003057  33.2920 326.8263 15.08822921 34306,6917.933000000001,95.439,541.9119999999998,537.683,0.0
52337.0,STARLINK-3797,PAYLOAD,2022-11-24 22:01:06,15.08827249,0.0003244,53.2159,199.5909,35.2533,324.8674,-8.2769e-06,-4.2e-06,0.0,0 STARLINK-3797,1 52337U 22045G   22328.91744161 -.00000420  00000-0 -82769-5 0  9998,2 52337  53.2159 199.5909 0003244  35.2533 324.8674 15.08827249 34369,6917.919,95.438,542.029,537.54,0.0
52337.0,STARLINK-3797,PAYLOAD,2022-11-25 01:11:53,15.08828778,0.0003222,53.216,198.9959,35.6741,324.4466,-3.8717000000000006e-06,-3.5000000000000016e-06,0.0,0 STARLINK-3797,1 52337U 22045G   22329.04992158 -.00000350  00000-0 -38717-5 0  9990,2 52337  53.2160 198.9959 0003222  35.6741 324.4466 15.08828778 34385,6917.915,95.438,542.009,537.5509999999998,0.0
52337.0,STARLINK-3797,PAYLOAD,2022-11-25 10:44:11,15.08835058,0.0003243,53.2158,197.2118,36.4778,323.6435,2.5959e-06,-2.47e-06,0.0,0 STARLINK-3797,1 52337U 22045G   22329.44736019 -.00000247  00000-0  25959-5 0  9994,2 52337  53.2158 197.2118 0003243  36.4778 323.6435 15.08835058 34446,6917.895,95.438,542.004,537.5169999999998,0.0
52337.0,STARLINK-3797,PAYLOAD,2022-11-25 17:05:44,15.088369,0.0003078,53.2158,196.0221,33.2464,326.8721,4.3675e-05,4.06e-06,0.0,0 STARLINK-3797,1 52337U 22045G   22329.71231879  .00000406  00000-0  43675-4 0  9998,2 52337  53.2158 196.0221 0003078  33.2464 326.8721 15.08836900 34485,6917.89,95.438,541.884,537.626,0.0
52337.0,STARLINK-3797,PAYLOAD,2022-11-25 21:51:53,15.08841366,0.0003149,53.2158,195.1301,34.4537,325.6659,3.7341e-05,3.06e-06,0.0,0 STARLINK-3797,1 52337U 22045G   22329.91103704  .00000306  00000-0  37341-4 0  9997,2 52337  53.2158 195.1301 0003149  34.4537 325.6659 15.08841366 34510,6917.876,95.437,541.92,537.563,0.0
52337.0,STARLINK-3797,PAYLOAD,2022-11-26 10:34:59,15.08840029,0.0003411,53.2148,192.752,37.8738,322.2493,0.00035125,5.306e-05,0.0,0 STARLINK-3797,1 52337U 22045G   22330.44096434  .00005306  00000-0  35125-3 0  9990,2 52337  53.2148 192.7520 0003411  37.8738 322.2493 15.08840029 34599,6917.88,95.438,542.105,537.386,0.0
52337.0,STARLINK-3797,PAYLOAD,2022-11-26 16:56:31,15.08847071,0.0003426,53.2147,191.5625,38.5361,321.5875,0.00039697,6.036e-05,0.0,0 STARLINK-3797,1 52337U 22045G   22330.70592190  .00006036  00000-0  39697-3 0  9998,2 52337  53.2147 191.5625 0003426  38.5361 321.5875 15.08847071 34632,6917.859,95.437,542.094,537.354,0.0
52337.0,STARLINK-3797,PAYLOAD,2022-11-26 20:07:17,15.08852368,0.0003458,53.2145,190.9678,38.7098,321.4141,0.00046345,7.098e-05,0.0,0 STARLINK-3797,1 52337U 22045G   22330.83840107  .00007098  00000-0  46345-3 0  9993,2 52337  53.2145 190.9678 0003458  38.7098 321.4141 15.08852368 34657,6917.843000000003,95.437,542.1,537.315,0.0
52337.0,STARLINK-3797,PAYLOAD,2022-11-27 10:25:45,15.0885574,0.0003495,53.2145,188.2916,39.8816,320.2432,0.00026205,3.886e-05,0.0,0 STARLINK-3797,1 52337U 22045G   22331.43455487  .00003886  00000-0  26205-3 0  9997,2 52337  53.2145 188.2916 0003495  39.8816 320.2432 15.08855740 34740,6917.831999999999,95.437,542.115,537.279,0.0
52337.0,STARLINK-3797,PAYLOAD,2022-11-27 21:33:27,15.08848403,0.0003481,53.2145,186.2098,40.6677,319.4575,7.5451e-05,9.12e-06,0.0,0 STARLINK-3797,1 52337U 22045G   22331.89823489  .00000912  00000-0  75451-4 0  9993,2 52337  53.2145 186.2098 0003481  40.6677 319.4575 15.08848403 34813,6917.855,95.437,542.128,537.312,0.0
52337.0,STARLINK-3797,PAYLOAD,2022-11-28 15:02:41,15.08853442,0.0003478999999999,53.2148,182.9386,41.9042,318.2216,8.1812e-05,1.014e-05,0.0,0 STARLINK-3797,1 52337U 22045G   22332.62686758  .00001014  00000-0  81812-4 0  9993,2 52337  53.2148 182.9386 0003479  41.9042 318.2216 15.08853442 34926,6917.839,95.437,542.111,537.298,0.0
